FALCONSAT-10            
1 58291U 23174AM  26068.70247784  .00006748  00000+0  25969-3 0  9991
2 58291  97.3865 145.7938 0008932 169.5942 190.5483 15.26670596129582
STARLINK-35974          
1 66862U 25281Q   26068.15395687  .00031567  00000+0  11520-2 0  9994
2 66862  43.0029 346.4961 0001821 265.8098  94.2545 15.27571682 16102
